{
  "type": "FeatureCollection",
  "features": [
    {
      "type": "Feature",
      "properties": {
        "norad_id": 34590,
        "name": "COSMOS 2251 DEB",
        "group": "cosmos-2251-debris",
        "lat": -3.8433297056031956,
        "lon": -61.34353555640379,
        "alt_km": 696.0113992346824,
        "timestamp": "2025-12-24T18:55:56.466587+00:00",
        "meta_object_name": "COSMOS 2251 DEB",
        "meta_object_id": "1993-036WC",
        "meta_epoch": "2025-12-24T02:30:53.383392",
        "meta_mean_motion": 14.54838673,
        "meta_eccentricity": 0.00680675,
        "meta_inclination": 74.0445,
        "meta_ra_of_asc_node": 301.0512,
        "meta_arg_of_pericenter": 67.327,
        "meta_mean_anomaly": 308.2616,
        "meta_ephemeris_type": 0,
        "meta_classification_type": "U",
        "meta_norad_cat_id": 34590,
        "meta_element_set_no": 999,
        "meta_rev_at_epoch": 89286,
        "meta_bstar": 0.00013616815,
        "meta_mean_motion_dot": 5.73e-06,
        "meta_mean_motion_ddot": 0,
        "tle_line1": "1 34590U 93036WC  25358.10478453  .00000573  00000+0  13617-3 0  9992",
        "tle_line2": "2 34590  74.0445 301.0512 0068067  67.3270 308.2616 14.54838673892869"
      },
      "geometry": {
        "type": "Point",
        "coordinates": [
          -61.34353555640379,
          -3.8433297056031956
        ]
      }
    },
    {
      "type": "Feature",
      "properties": {
        "norad_id": 34609,
        "name": "COSMOS 2251 DEB",
        "group": "cosmos-2251-debris",
        "lat": 42.284094567018414,
        "lon": -110.69830567058142,
        "alt_km": 917.4408765552453,
        "timestamp": "2025-12-24T18:55:56.466598+00:00",
        "meta_object_name": "COSMOS 2251 DEB",
        "meta_object_id": "1993-036WE",
        "meta_epoch": "2025-12-24T00:34:30.192384",
        "meta_mean_motion": 14.2183063,
        "meta_eccentricity": 0.01457677,
        "meta_inclination": 73.7329,
        "meta_ra_of_asc_node": 86.098,
        "meta_arg_of_pericenter": 303.8546,
        "meta_mean_anomaly": 238.3232,
        "meta_ephemeris_type": 0,
        "meta_classification_type": "U",
        "meta_norad_cat_id": 34609,
        "meta_element_set_no": 999,
        "meta_rev_at_epoch": 86792,
        "meta_bstar": 0.00072342659,
        "meta_mean_motion_dot": 1.747e-05,
        "meta_mean_motion_ddot": 0,
        "tle_line1": "1 34609U 93036WE  25358.02396056  .00001747  00000+0  72343-3 0  9997",
        "tle_line2": "2 34609  73.7329  86.0980 0145767 303.8546 238.3232 14.21830630867928"
      },
      "geometry": {
        "type": "Point",
        "coordinates": [
          -110.69830567058142,
          42.284094567018414
        ]
      }
    },
    {
      "type": "Feature",
      "properties": {
        "norad_id": 34610,
        "name": "COSMOS 2251 DEB",
        "group": "cosmos-2251-debris",
        "lat": 22.417755135159783,
        "lon": -112.02125136962022,
        "alt_km": 741.5450574019487,
        "timestamp": "2025-12-24T18:55:56.466608+00:00",
        "meta_object_name": "COSMOS 2251 DEB",
        "meta_object_id": "1993-036WF",
        "meta_epoch": "2025-12-23T10:24:24.827616",
        "meta_mean_motion": 14.07123251,
        "meta_eccentricity": 0.01806356,
        "meta_inclination": 74.0159,
        "meta_ra_of_asc_node": 243.5644,
        "meta_arg_of_pericenter": 11.7227,
        "meta_mean_anomaly": 348.8028,
        "meta_ephemeris_type": 0,
        "meta_classification_type": "U",
        "meta_norad_cat_id": 34610,
        "meta_element_set_no": 999,
        "meta_rev_at_epoch": 85710,
        "meta_bstar": 0.0019617282,
        "meta_mean_motion_dot": 3.785e-05,
        "meta_mean_motion_ddot": 0,
        "tle_line1": "1 34610U 93036WF  25357.43362069  .00003785  00000+0  19617-2 0  9998",
        "tle_line2": "2 34610  74.0159 243.5644 0180635  11.7227 348.8028 14.07123251857103"
      },
      "geometry": {
        "type": "Point",
        "coordinates": [
          -112.02125136962022,
          22.417755135159783
        ]
      }
    },
    {
      "type": "Feature",
      "properties": {
        "norad_id": 34611,
        "name": "COSMOS 2251 DEB",
        "group": "cosmos-2251-debris",
        "lat": -73.77746228586138,
        "lon": -23.01820982409531,
        "alt_km": 682.3844877078882,
        "timestamp": "2025-12-24T18:55:56.466620+00:00",
        "meta_object_name": "COSMOS 2251 DEB",
        "meta_object_id": "1993-036WG",
        "meta_epoch": "2025-12-24T06:32:31.536672",
        "meta_mean_motion": 14.69698692,
        "meta_eccentricity": 0.00215439,
        "meta_inclination": 74.0533,
        "meta_ra_of_asc_node": 78.6437,
        "meta_arg_of_pericenter": 115.8532,
        "meta_mean_anomaly": 300.6962,
        "meta_ephemeris_type": 0,
        "meta_classification_type": "U",
        "meta_norad_cat_id": 34611,
        "meta_element_set_no": 999,
        "meta_rev_at_epoch": 88560,
        "meta_bstar": 0.0014906469,
        "meta_mean_motion_dot": 8.891e-05,
        "meta_mean_motion_ddot": 0,
        "tle_line1": "1 34611U 93036WG  25358.27258723  .00008891  00000+0  14906-2 0  9992",
        "tle_line2": "2 34611  74.0533  78.6437 0021543 115.8532 300.6962 14.69698692885607"
      },
      "geometry": {
        "type": "Point",
        "coordinates": [
          -23.01820982409531,
          -73.77746228586138
        ]
      }
    },
    {
      "type": "Feature",
      "properties": {
        "norad_id": 34613,
        "name": "COSMOS 2251 DEB",
        "group": "cosmos-2251-debris",
        "lat": -68.87813901286363,
        "lon": -151.44707739158258,
        "alt_km": 885.6004543484805,
        "timestamp": "2025-12-24T18:55:56.466630+00:00",
        "meta_object_name": "COSMOS 2251 DEB",
        "meta_object_id": "1993-036WJ",
        "meta_epoch": "2025-12-23T12:07:47.047296",
        "meta_mean_motion": 14.26494141,
        "meta_eccentricity": 0.01106207,
        "meta_inclination": 73.9631,
        "meta_ra_of_asc_node": 259.0038,
        "meta_arg_of_pericenter": 88.0259,
        "meta_mean_anomaly": 87.9625,
        "meta_ephemeris_type": 0,
        "meta_classification_type": "U",
        "meta_norad_cat_id": 34613,
        "meta_element_set_no": 999,
        "meta_rev_at_epoch": 86616,
        "meta_bstar": 0.0011878457,
        "meta_mean_motion_dot": 3.029e-05,
        "meta_mean_motion_ddot": 0,
        "tle_line1": "1 34613U 93036WJ  25357.50540564  .00003029  00000+0  11878-2 0  9999",
        "tle_line2": "2 34613  73.9631 259.0038 0110620  88.0259  87.9625 14.26494141866167"
      },
      "geometry": {
        "type": "Point",
        "coordinates": [
          -151.44707739158258,
          -68.87813901286363
        ]
      }
    },
    {
      "type": "Feature",
      "properties": {
        "norad_id": 34614,
        "name": "COSMOS 2251 DEB",
        "group": "cosmos-2251-debris",
        "lat": 3.908965690694699,
        "lon": 141.07106992974832,
        "alt_km": 939.5169776127723,
        "timestamp": "2025-12-24T18:55:56.466641+00:00",
        "meta_object_name": "COSMOS 2251 DEB",
        "meta_object_id": "1993-036WK",
        "meta_epoch": "2025-12-18T23:21:59.727744",
        "meta_mean_motion": 14.17670739,
        "meta_eccentricity": 0.0197223,
        "meta_inclination": 73.8822,
        "meta_ra_of_asc_node": 332.666,
        "meta_arg_of_pericenter": 325.6345,
        "meta_mean_anomaly": 63.1604,
        "meta_ephemeris_type": 0,
        "meta_classification_type": "U",
        "meta_norad_cat_id": 34614,
        "meta_element_set_no": 999,
        "meta_rev_at_epoch": 84855,
        "meta_bstar": 0.0046815228,
        "meta_mean_motion_dot": 0.00011531,
        "meta_mean_motion_ddot": 0,
        "tle_line1": "1 34614U 93036WK  25352.97360796  .00011531  00000+0  46815-2 0  9999",
        "tle_line2": "2 34614  73.8822 332.6660 0197223 325.6345  63.1604 14.17670739848553"
      },
      "geometry": {
        "type": "Point",
        "coordinates": [
          141.07106992974832,
          3.908965690694699
        ]
      }
    },
    {
      "type": "Feature",
      "properties": {
        "norad_id": 34615,
        "name": "COSMOS 2251 DEB",
        "group": "cosmos-2251-debris",
        "lat": 65.1950505529186,
        "lon": 56.45619385182202,
        "alt_km": 946.6702979583297,
        "timestamp": "2025-12-24T18:55:56.466651+00:00",
        "meta_object_name": "COSMOS 2251 DEB",
        "meta_object_id": "1993-036WL",
        "meta_epoch": "2025-12-23T05:51:02.282688",
        "meta_mean_motion": 13.52205597,
        "meta_eccentricity": 0.04004644,
        "meta_inclination": 74.0046,
        "meta_ra_of_asc_node": 277.2944,
        "meta_arg_of_pericenter": 182.2976,
        "meta_mean_anomaly": 332.6284,
        "meta_ephemeris_type": 0,
        "meta_classification_type": "U",
        "meta_norad_cat_id": 34615,
        "meta_element_set_no": 999,
        "meta_rev_at_epoch": 82957,
        "meta_bstar": 0.00017989399,
        "meta_mean_motion_dot": 1.76e-06,
        "meta_mean_motion_ddot": 0,
        "tle_line1": "1 34615U 93036WL  25357.24377642  .00000176  00000+0  17989-3 0  9997",
        "tle_line2": "2 34615  74.0046 277.2944 0400464 182.2976 332.6284 13.52205597829578"
      },
      "geometry": {
        "type": "Point",
        "coordinates": [
          56.45619385182202,
          65.1950505529186
        ]
      }
    }
  ]
}